STARLINK-5656           
1 55451U 23015C   26068.11932012 -.00000471  00000+0 -19763-4 0  9995
2 55451  43.0057 329.4856 0001207 271.4655  88.6049 15.02537190170666
PICO-02A021             
1 60538U 24149BY  26068.15390193  .00008488  00000+0  64833-3 0  9999
2 60538  97.6823 147.9080 0004195   9.5557 350.5747 15.02201963 84718
